<?xml version="1.0" encoding="UTF-8"?>
<ndm xmlns:xsi="http://www.w3.org/2001/XMLSchema-instance" xsi:noNamespaceSchemaLocation="https://sanaregistry.org/r/ndmxml_unqualified/ndmxml-2.0.0-master-2.0.xsd">
<omm id="CCSDS_OMM_VERS" version="2.0">
<header><CREATION_DATE/><ORIGINATOR/></header><body><segment><metadata><OBJECT_NAME>ORBCOMM FM20</OBJECT_NAME><OBJECT_ID>1998-046D</OBJECT_ID><CENTER_NAME>EARTH</CENTER_NAME><REF_FRAME>TEME</REF_FRAME><TIME_SYSTEM>UTC</TIME_SYSTEM><MEAN_ELEMENT_THEORY>SGP4</MEAN_ELEMENT_THEORY></metadata><data><meanElements><EPOCH>2025-01-04T22:38:01.644576</EPOCH><MEAN_MOTION>14.36567045</MEAN_MOTION><ECCENTRICITY>.0000633</ECCENTRICITY><INCLINATION>44.9919</INCLINATION><RA_OF_ASC_NODE>234.0114</RA_OF_ASC_NODE><ARG_OF_PERICENTER>115.7096</ARG_OF_PERICENTER><MEAN_ANOMALY>244.3817</MEAN_ANOMALY></meanElements><tleParameters><EPHEMERIS_TYPE>0</EPHEMERIS_TYPE><CLASSIFICATION_TYPE>U</CLASSIFICATION_TYPE><NORAD_CAT_ID>25416</NORAD_CAT_ID><ELEMENT_SET_NO>999</ELEMENT_SET_NO><REV_AT_EPOCH>38078</REV_AT_EPOCH><BSTAR>.87899E-3</BSTAR><MEAN_MOTION_DOT>.2466E-4</MEAN_MOTION_DOT><MEAN_MOTION_DDOT>0</MEAN_MOTION_DDOT></tleParameters></data></segment></body></omm>
<omm id="CCSDS_OMM_VERS" version="2.0">
<header><CREATION_DATE/><ORIGINATOR/></header><body><segment><metadata><OBJECT_NAME>ORBCOMM FM15</OBJECT_NAME><OBJECT_ID>1998-046F</OBJECT_ID><CENTER_NAME>EARTH</CENTER_NAME><REF_FRAME>TEME</REF_FRAME><TIME_SYSTEM>UTC</TIME_SYSTEM><MEAN_ELEMENT_THEORY>SGP4</MEAN_ELEMENT_THEORY></metadata><data><meanElements><EPOCH>2025-01-04T20:22:33.237984</EPOCH><MEAN_MOTION>14.37690468</MEAN_MOTION><ECCENTRICITY>.0003614</ECCENTRICITY><INCLINATION>44.9948</INCLINATION><RA_OF_ASC_NODE>232.7070</RA_OF_ASC_NODE><ARG_OF_PERICENTER>184.6601</ARG_OF_PERICENTER><MEAN_ANOMALY>175.4214</MEAN_ANOMALY></meanElements><tleParameters><EPHEMERIS_TYPE>0</EPHEMERIS_TYPE><CLASSIFICATION_TYPE>U</CLASSIFICATION_TYPE><NORAD_CAT_ID>25418</NORAD_CAT_ID><ELEMENT_SET_NO>999</ELEMENT_SET_NO><REV_AT_EPOCH>38073</REV_AT_EPOCH><BSTAR>.10478E-2</BSTAR><MEAN_MOTION_DOT>.3038E-4</MEAN_MOTION_DOT><MEAN_MOTION_DDOT>0</MEAN_MOTION_DDOT></tleParameters></data></segment></body></omm>
<omm id="CCSDS_OMM_VERS" version="2.0">
<header><CREATION_DATE/><ORIGINATOR/></header><body><segment><metadata><OBJECT_NAME>ORBCOMM FM13</OBJECT_NAME><OBJECT_ID>1998-046H</OBJECT_ID><CENTER_NAME>EARTH</CENTER_NAME><REF_FRAME>TEME</REF_FRAME><TIME_SYSTEM>UTC</TIME_SYSTEM><MEAN_ELEMENT_THEORY>SGP4</MEAN_ELEMENT_THEORY></metadata><data><meanElements><EPOCH>2025-01-04T22:56:28.703328</EPOCH><MEAN_MOTION>14.36927501</MEAN_MOTION><ECCENTRICITY>.0004619</ECCENTRICITY><INCLINATION>44.9954</INCLINATION><RA_OF_ASC_NODE>237.3643</RA_OF_ASC_NODE><ARG_OF_PERICENTER>169.0358</ARG_OF_PERICENTER><MEAN_ANOMALY>191.0591</MEAN_ANOMALY></meanElements><tleParameters><EPHEMERIS_TYPE>0</EPHEMERIS_TYPE><CLASSIFICATION_TYPE>U</CLASSIFICATION_TYPE><NORAD_CAT_ID>25420</NORAD_CAT_ID><ELEMENT_SET_NO>999</ELEMENT_SET_NO><REV_AT_EPOCH>37975</REV_AT_EPOCH><BSTAR>.96582E-3</BSTAR><MEAN_MOTION_DOT>.2745E-4</MEAN_MOTION_DOT><MEAN_MOTION_DDOT>0</MEAN_MOTION_DDOT></tleParameters></data></segment></body></omm>
<omm id="CCSDS_OMM_VERS" version="2.0">
<header><CREATION_DATE/><ORIGINATOR/></header><body><segment><metadata><OBJECT_NAME>ORBCOMM FM21</OBJECT_NAME><OBJECT_ID>1998-053A</OBJECT_ID><CENTER_NAME>EARTH</CENTER_NAME><REF_FRAME>TEME</REF_FRAME><TIME_SYSTEM>UTC</TIME_SYSTEM><MEAN_ELEMENT_THEORY>SGP4</MEAN_ELEMENT_THEORY></metadata><data><meanElements><EPOCH>2025-01-04T22:19:26.629248</EPOCH><MEAN_MOTION>14.36712864</MEAN_MOTION><ECCENTRICITY>.0000835</ECCENTRICITY><INCLINATION>45.0090</INCLINATION><RA_OF_ASC_NODE>322.2775</RA_OF_ASC_NODE><ARG_OF_PERICENTER>342.8041</ARG_OF_PERICENTER><MEAN_ANOMALY>17.2778</MEAN_ANOMALY></meanElements><tleParameters><EPHEMERIS_TYPE>0</EPHEMERIS_TYPE><CLASSIFICATION_TYPE>U</CLASSIFICATION_TYPE><NORAD_CAT_ID>25475</NORAD_CAT_ID><ELEMENT_SET_NO>999</ELEMENT_SET_NO><REV_AT_EPOCH>37376</REV_AT_EPOCH><BSTAR>.1179E-2</BSTAR><MEAN_MOTION_DOT>.3366E-4</MEAN_MOTION_DOT><MEAN_MOTION_DDOT>0</MEAN_MOTION_DDOT></tleParameters></data></segment></body></omm>
<omm id="CCSDS_OMM_VERS" version="2.0">
<header><CREATION_DATE/><ORIGINATOR/></header><body><segment><metadata><OBJECT_NAME>ORBCOMM FM22</OBJECT_NAME><OBJECT_ID>1998-053B</OBJECT_ID><CENTER_NAME>EARTH</CENTER_NAME><REF_FRAME>TEME</REF_FRAME><TIME_SYSTEM>UTC</TIME_SYSTEM><MEAN_ELEMENT_THEORY>SGP4</MEAN_ELEMENT_THEORY></metadata><data><meanElements><EPOCH>2025-01-04T22:28:28.639776</EPOCH><MEAN_MOTION>14.37555316</MEAN_MOTION><ECCENTRICITY>.0001525</ECCENTRICITY><INCLINATION>45.0083</INCLINATION><RA_OF_ASC_NODE>318.3055</RA_OF_ASC_NODE><ARG_OF_PERICENTER>87.6358</ARG_OF_PERICENTER><MEAN_ANOMALY>272.4665</MEAN_ANOMALY></meanElements><tleParameters><EPHEMERIS_TYPE>0</EPHEMERIS_TYPE><CLASSIFICATION_TYPE>U</CLASSIFICATION_TYPE><NORAD_CAT_ID>25476</NORAD_CAT_ID><ELEMENT_SET_NO>999</ELEMENT_SET_NO><REV_AT_EPOCH>37377</REV_AT_EPOCH><BSTAR>.1234E-2</BSTAR><MEAN_MOTION_DOT>.3593E-4</MEAN_MOTION_DOT><MEAN_MOTION_DDOT>0</MEAN_MOTION_DDOT></tleParameters></data></segment></body></omm>

</ndm>
