ORBCOMM FM20            
1 25416U 98046D   25004.94307459  .00002466  00000+0  87899-3 0  9998
2 25416  44.9919 234.0114 0000633 115.7096 244.3817 14.36567045380788
ORBCOMM FM15            
1 25418U 98046F   25004.84899581  .00003038  00000+0  10478-2 0  9995
2 25418  44.9948 232.7070 0003614 184.6601 175.4214 14.37690468380734
ORBCOMM FM13            
1 25420U 98046H   25004.95588777  .00002745  00000+0  96582-3 0  9997
2 25420  44.9954 237.3643 0004619 169.0358 191.0591 14.36927501379755
ORBCOMM FM21            
1 25475U 98053A   25004.93016932  .00003366  00000+0  11790-2 0  9999
2 25475  45.0090 322.2775 0000835 342.8041  17.2778 14.36712864373769
ORBCOMM FM22            
1 25476U 98053B   25004.93644259  .00003593  00000+0  12340-2 0  9993
2 25476  45.0083 318.3055 0001525  87.6358 272.4665 14.37555316373770
